QIANFAN-41              
1 62242U 24232F   26025.23784888  .00000046  00000+0  52173-4 0  9993
2 62242  89.0000  36.8020 0015802  68.7787 291.5050 13.50983347105127
QIANFAN-42              
1 62243U 24232G   26025.32450792  .00000227  00000+0  91774-4 0  9999
2 62243  88.9997  32.3718 0013112 307.7019  52.2984 14.24510586107574
QIANFAN-43              
1 62244U 24232H   26025.23372704  .00000034  00000+0  34561-4 0  9993
2 62244  89.0005  36.8697 0017375  73.2193 287.0863 13.50982331 73738
QIANFAN-44              
1 62245U 24232J   26025.22135999  .00000034  00000+0  34427-4 0  9997
2 62245  89.0003  36.6810 0015561  70.8899 289.3935 13.50984642105203
QIANFAN-45              
1 62246U 24232K   26025.26260215  .00000036  00000+0  37191-4 0  9995
2 62246  89.0007  36.8249 0016219  70.3593 289.9307 13.50980696105139
QIANFAN-46              
1 62247U 24232L   26025.28722507  .00000045  00000+0  50370-4 0  9999
2 62247  89.0003  36.8896 0016322  75.2035 285.0923 13.50982728105098
QIANFAN-47              
1 62248U 24232M   26025.29137668  .00000033  00000+0  31814-4 0  9998
2 62248  88.9999  36.8204 0016751  74.3394 285.9604 13.50982719105127
QIANFAN-48              
1 62249U 24232N   26025.32834826  .00000022  00000+0  15358-4 0  9996
2 62249  89.0003  36.8202 0019026  76.3386 283.9882 13.50983975105137
